[{"OBJECT_NAME":"VRSS-2","OBJECT_ID":"2017-060A","EPOCH":"2026-03-10T00:16:34.589280","MEAN_MOTION":14.81020191,"ECCENTRICITY":0.00185314,"INCLINATION":97.6651,"RA_OF_ASC_NODE":111.1521,"ARG_OF_PERICENTER":66.4174,"MEAN_ANOMALY":293.8983,"EPHEMERIS_TYPE":0,"CLASSIFICATION_TYPE":"U","NORAD_CAT_ID":42954,"ELEMENT_SET_NO":999,"REV_AT_EPOCH":45377,"BSTAR":0.00022726624,"MEAN_MOTION_DOT":1.716e-5,"MEAN_MOTION_DDOT":0},{"OBJECT_NAME":"DEMETER","OBJECT_ID":"2004-025C","EPOCH":"2026-03-09T21:10:45.702624","MEAN_MOTION":14.8342252,"ECCENTRICITY":0.00022719,"INCLINATION":98.1193,"RA_OF_ASC_NODE":47.0264,"ARG_OF_PERICENTER":86.4316,"MEAN_ANOMALY":273.7157,"EPHEMERIS_TYPE":0,"CLASSIFICATION_TYPE":"U","NORAD_CAT_ID":28368,"ELEMENT_SET_NO":999,"REV_AT_EPOCH":16595,"BSTAR":0.00033744354,"MEAN_MOTION_DOT":2.715e-5,"MEAN_MOTION_DDOT":0}]
